CCSDS_OMM_VERS = 2.0
CREATION_DATE  = 
ORIGINATOR     = 

OBJECT_NAME    = SL-14 R/B
OBJECT_ID      = 1986-046B
CENTER_NAME    = EARTH
REF_FRAME      = TEME
TIME_SYSTEM    = UTC
MEAN_ELEMENT_THEORY = SGP/SGP4

EPOCH          = 2025-12-28T19:31:22.262304
MEAN_MOTION    = 14.85503332
ECCENTRICITY   = .00246019
INCLINATION    = 82.4820
RA_OF_ASC_NODE = 147.1339
ARG_OF_PERICENTER = 101.6791
MEAN_ANOMALY   = 258.7188

EPHEMERIS_TYPE = 0
CLASSIFICATION_TYPE = U
NORAD_CAT_ID   = 16792
ELEMENT_SET_NO = 999
REV_AT_EPOCH   = 11588
BSTAR          = .83726891E-4
MEAN_MOTION_DOT = .751E-5
MEAN_MOTION_DDOT = 0

CCSDS_OMM_VERS = 2.0
CREATION_DATE  = 
ORIGINATOR     = 

OBJECT_NAME    = SL-14 R/B
OBJECT_ID      = 1986-055B
CENTER_NAME    = EARTH
REF_FRAME      = TEME
TIME_SYSTEM    = UTC
MEAN_ELEMENT_THEORY = SGP/SGP4

EPOCH          = 2025-12-28T22:55:54.289344
MEAN_MOTION    = 14.85547792
ECCENTRICITY   = .00182967
INCLINATION    = 82.5192
RA_OF_ASC_NODE = 193.1349
ARG_OF_PERICENTER = 202.1901
MEAN_ANOMALY   = 270.3804

EPHEMERIS_TYPE = 0
CLASSIFICATION_TYPE = U
NORAD_CAT_ID   = 16882
ELEMENT_SET_NO = 999
REV_AT_EPOCH   = 10886
BSTAR          = .84541318E-4
MEAN_MOTION_DOT = .756E-5
MEAN_MOTION_DDOT = 0

CCSDS_OMM_VERS = 2.0
CREATION_DATE  = 
ORIGINATOR     = 

OBJECT_NAME    = AJISAI (EGS)
OBJECT_ID      = 1986-061A
CENTER_NAME    = EARTH
REF_FRAME      = TEME
TIME_SYSTEM    = UTC
MEAN_ELEMENT_THEORY = SGP/SGP4

EPOCH          = 2025-12-28T23:00:47.760768
MEAN_MOTION    = 12.44514490
ECCENTRICITY   = .00113184
INCLINATION    = 50.0111
RA_OF_ASC_NODE = 310.8449
ARG_OF_PERICENTER = 106.6115
MEAN_ANOMALY   = 295.0461

EPHEMERIS_TYPE = 0
CLASSIFICATION_TYPE = U
NORAD_CAT_ID   = 16908
ELEMENT_SET_NO = 999
REV_AT_EPOCH   = 45919
BSTAR          = .91315137E-4
MEAN_MOTION_DOT = -.85E-6
MEAN_MOTION_DDOT = 0

CCSDS_OMM_VERS = 2.0
CREATION_DATE  = 
ORIGINATOR     = 

OBJECT_NAME    = COSMOS 1812
OBJECT_ID      = 1987-003A
CENTER_NAME    = EARTH
REF_FRAME      = TEME
TIME_SYSTEM    = UTC
MEAN_ELEMENT_THEORY = SGP/SGP4

EPOCH          = 2025-12-28T18:47:12.765696
MEAN_MOTION    = 15.79029072
ECCENTRICITY   = .00059263
INCLINATION    = 82.4867
RA_OF_ASC_NODE = 274.6082
ARG_OF_PERICENTER = 64.3420
MEAN_ANOMALY   = 295.8458

EPHEMERIS_TYPE = 0
CLASSIFICATION_TYPE = U
NORAD_CAT_ID   = 17295
ELEMENT_SET_NO = 999
REV_AT_EPOCH   = 13318
BSTAR          = .76039873E-3
MEAN_MOTION_DOT = .13656E-2
MEAN_MOTION_DDOT = 0

CCSDS_OMM_VERS = 2.0
CREATION_DATE  = 
ORIGINATOR     = 

OBJECT_NAME    = SL-14 R/B
OBJECT_ID      = 1987-024B
CENTER_NAME    = EARTH
REF_FRAME      = TEME
TIME_SYSTEM    = UTC
MEAN_ELEMENT_THEORY = SGP/SGP4

EPOCH          = 2025-12-28T16:05:37.148640
MEAN_MOTION    = 14.86042141
ECCENTRICITY   = .00193535
INCLINATION    = 82.5283
RA_OF_ASC_NODE = 159.4888
ARG_OF_PERICENTER = 132.8915
MEAN_ANOMALY   = 227.3931

EPHEMERIS_TYPE = 0
CLASSIFICATION_TYPE = U
NORAD_CAT_ID   = 17567
ELEMENT_SET_NO = 999
REV_AT_EPOCH   = 7758
BSTAR          = .8576866E-4
MEAN_MOTION_DOT = .777E-5
MEAN_MOTION_DDOT = 0

CCSDS_OMM_VERS = 2.0
CREATION_DATE  = 
ORIGINATOR     = 

OBJECT_NAME    = COSMOS 1833
OBJECT_ID      = 1987-027A
CENTER_NAME    = EARTH
REF_FRAME      = TEME
TIME_SYSTEM    = UTC
MEAN_ELEMENT_THEORY = SGP/SGP4

EPOCH          = 2025-12-28T17:11:48.622272
MEAN_MOTION    = 14.13030664
ECCENTRICITY   = .00232865
INCLINATION    = 70.9171
RA_OF_ASC_NODE = 115.1926
ARG_OF_PERICENTER = 309.4916
MEAN_ANOMALY   = 50.4145

EPHEMERIS_TYPE = 0
CLASSIFICATION_TYPE = U
NORAD_CAT_ID   = 17589
ELEMENT_SET_NO = 999
REV_AT_EPOCH   = 29
BSTAR          = .1943136E-3
MEAN_MOTION_DOT = .315E-5
MEAN_MOTION_DDOT = 0

CCSDS_OMM_VERS = 2.0
CREATION_DATE  = 
ORIGINATOR     = 

OBJECT_NAME    = SL-16 R/B
OBJECT_ID      = 1987-027B
CENTER_NAME    = EARTH
REF_FRAME      = TEME
TIME_SYSTEM    = UTC
MEAN_ELEMENT_THEORY = SGP/SGP4

EPOCH          = 2025-12-28T14:43:26.618592
MEAN_MOTION    = 14.17156276
ECCENTRICITY   = .0007149
INCLINATION    = 71.0036
RA_OF_ASC_NODE = 66.2701
ARG_OF_PERICENTER = 243.1957
MEAN_ANOMALY   = 116.8436

EPHEMERIS_TYPE = 0
CLASSIFICATION_TYPE = U
NORAD_CAT_ID   = 17590
ELEMENT_SET_NO = 999
REV_AT_EPOCH   = 527
BSTAR          = -.64965E-4
MEAN_MOTION_DOT = -.179E-5
MEAN_MOTION_DDOT = 0

CCSDS_OMM_VERS = 2.0
CREATION_DATE  = 
ORIGINATOR     = 

OBJECT_NAME    = SL-14 R/B
OBJECT_ID      = 1987-038B
CENTER_NAME    = EARTH
REF_FRAME      = TEME
TIME_SYSTEM    = UTC
MEAN_ELEMENT_THEORY = SGP/SGP4

EPOCH          = 2025-12-28T23:10:48.218304
MEAN_MOTION    = 14.85278083
ECCENTRICITY   = .00203679
INCLINATION    = 82.5009
RA_OF_ASC_NODE = 3.4160
ARG_OF_PERICENTER = 42.1076
MEAN_ANOMALY   = 318.1700

EPHEMERIS_TYPE = 0
CLASSIFICATION_TYPE = U
NORAD_CAT_ID   = 17912
ELEMENT_SET_NO = 999
REV_AT_EPOCH   = 6873
BSTAR          = .86892153E-4
MEAN_MOTION_DOT = .773E-5
MEAN_MOTION_DDOT = 0

CCSDS_OMM_VERS = 2.0
CREATION_DATE  = 
ORIGINATOR     = 

OBJECT_NAME    = COSMOS 1844
OBJECT_ID      = 1987-041A
CENTER_NAME    = EARTH
REF_FRAME      = TEME
TIME_SYSTEM    = UTC
MEAN_ELEMENT_THEORY = SGP/SGP4

EPOCH          = 2025-12-28T21:32:11.513472
MEAN_MOTION    = 14.14534599
ECCENTRICITY   = .00292627
INCLINATION    = 70.8975
RA_OF_ASC_NODE = 183.4920
ARG_OF_PERICENTER = 131.4908
MEAN_ANOMALY   = 228.8733

EPHEMERIS_TYPE = 0
CLASSIFICATION_TYPE = U
NORAD_CAT_ID   = 17973
ELEMENT_SET_NO = 999
REV_AT_EPOCH   = 99357
BSTAR          = .21773591E-3
MEAN_MOTION_DOT = .371E-5
MEAN_MOTION_DDOT = 0

CCSDS_OMM_VERS = 2.0
CREATION_DATE  = 
ORIGINATOR     = 

OBJECT_NAME    = SL-14 R/B
OBJECT_ID      = 1987-055B
CENTER_NAME    = EARTH
REF_FRAME      = TEME
TIME_SYSTEM    = UTC
MEAN_ELEMENT_THEORY = SGP/SGP4

EPOCH          = 2025-12-28T13:13:02.970048
MEAN_MOTION    = 14.85537758
ECCENTRICITY   = .0019273
INCLINATION    = 82.4988
RA_OF_ASC_NODE = 56.0869
ARG_OF_PERICENTER = 247.0954
MEAN_ANOMALY   = 112.8228

EPHEMERIS_TYPE = 0
CLASSIFICATION_TYPE = U
NORAD_CAT_ID   = 18153
ELEMENT_SET_NO = 999
REV_AT_EPOCH   = 5937
BSTAR          = .67403E-4
MEAN_MOTION_DOT = .608E-5
MEAN_MOTION_DDOT = 0

CCSDS_OMM_VERS = 2.0
CREATION_DATE  = 
ORIGINATOR     = 

OBJECT_NAME    = COSMOS 1867
OBJECT_ID      = 1987-060A
CENTER_NAME    = EARTH
REF_FRAME      = TEME
TIME_SYSTEM    = UTC
MEAN_ELEMENT_THEORY = SGP/SGP4

EPOCH          = 2025-12-28T19:27:43.656480
MEAN_MOTION    = 14.31488883
ECCENTRICITY   = .00137007
INCLINATION    = 65.0095
RA_OF_ASC_NODE = 145.1965
ARG_OF_PERICENTER = 272.7062
MEAN_ANOMALY   = 87.2454

EPHEMERIS_TYPE = 0
CLASSIFICATION_TYPE = U
NORAD_CAT_ID   = 18187
ELEMENT_SET_NO = 999
REV_AT_EPOCH   = 979
BSTAR          = .46222321E-4
MEAN_MOTION_DOT = .23E-6
MEAN_MOTION_DDOT = 0

CCSDS_OMM_VERS = 2.0
CREATION_DATE  = 
ORIGINATOR     = 

OBJECT_NAME    = SL-14 R/B
OBJECT_ID      = 1988-001B
CENTER_NAME    = EARTH
REF_FRAME      = TEME
TIME_SYSTEM    = UTC
MEAN_ELEMENT_THEORY = SGP/SGP4

EPOCH          = 2025-12-28T16:13:36.040512
MEAN_MOTION    = 14.85440878
ECCENTRICITY   = .00195286
INCLINATION    = 82.5132
RA_OF_ASC_NODE = 262.1594
ARG_OF_PERICENTER = 111.2873
MEAN_ANOMALY   = 249.0431

EPHEMERIS_TYPE = 0
CLASSIFICATION_TYPE = U
NORAD_CAT_ID   = 18749
ELEMENT_SET_NO = 999
REV_AT_EPOCH   = 3148
BSTAR          = .68662482E-4
MEAN_MOTION_DOT = .618E-5
MEAN_MOTION_DDOT = 0

