SL-14 R/B               
1 16792U 86046B   25362.81345211  .00000751  00000+0  83727-4 0  9995
2 16792  82.4820 147.1339 0024601 101.6791 258.7188 14.85503332115883
SL-14 R/B               
1 16882U 86055B   25362.95548946  .00000756  00000+0  84541-4 0  9990
2 16882  82.5192 193.1349 0018296 202.1901 270.3804 14.85547792108864
AJISAI (EGS)            
1 16908U 86061A   25362.95888612 -.00000085  00000+0  91315-4 0  9996
2 16908  50.0111 310.8449 0011318 106.6115 295.0461 12.44514490459196
COSMOS 1812             
1 17295U 87003A   25362.78278664  .00136560  00000+0  76040-3 0  9998
2 17295  82.4867 274.6082 0005926  64.3420 295.8458 15.79029072133180
SL-14 R/B               
1 17567U 87024B   25362.67056885  .00000777  00000+0  85769-4 0  9999
2 17567  82.5283 159.4888 0019353 132.8915 227.3931 14.86042141 77584
COSMOS 1833             
1 17589U 87027A   25362.71653498  .00000315  00000+0  19431-3 0  9994
2 17589  70.9171 115.1926 0023286 309.4916  50.4145 14.13030664   293
SL-16 R/B               
1 17590U 87027B   25362.61350253 -.00000179  00000+0 -64965-4 0  9991
2 17590  71.0036  66.2701 0007149 243.1957 116.8436 14.17156276  5278
SL-14 R/B               
1 17912U 87038B   25362.96583586  .00000773  00000+0  86892-4 0  9997
2 17912  82.5009   3.4160 0020367  42.1076 318.1700 14.85278083 68738
COSMOS 1844             
1 17973U 87041A   25362.89735548  .00000371  00000+0  21774-3 0  9998
2 17973  70.8975 183.4920 0029262 131.4908 228.8733 14.14534599993570
SL-14 R/B               
1 18153U 87055B   25362.55072882  .00000608  00000+0  67403-4 0  9995
2 18153  82.4988  56.0869 0019273 247.0954 112.8228 14.85537758 59377
COSMOS 1867             
1 18187U 87060A   25362.81092195  .00000023  00000+0  46222-4 0  9993
2 18187  65.0095 145.1965 0013700 272.7062  87.2454 14.31488883  9793
SL-14 R/B               
1 18749U 88001B   25362.67611158  .00000618  00000+0  68662-4 0  9995
2 18749  82.5132 262.1594 0019528 111.2873 249.0431 14.85440878 31487
